0 FENGYUN 1C DEB
1 30054U 99025PF  13281.93073116  .00000303  00000-0  32286-3 0  9127
2 30054 099.6957 270.2575 0285528 272.4011 139.8781 13.65883201335728
0 FENGYUN 1C DEB
1 30054U 99025PF  13282.95674536  .00000281  00000-0  30310-3 0  9135
2 30054 099.6957 271.2854 0285526 269.7719 144.9813 13.65883866335866
0 FENGYUN 1C DEB
1 30054U 99025PF  13284.20318554  .00000294  00000-0  31510-3 0  9148
2 30054 099.6956 272.5340 0285522 266.5768 153.9658 13.65884643336035
0 FENGYUN 1C DEB
1 30054U 99025PF  13285.53361748  .00000249  00000-0  27348-3 0  9153
2 30054 099.6956 273.8667 0285521 263.1652 215.9595 13.65885862336218
0 FENGYUN 1C DEB
1 30054U 99025PF  13286.91440902  .00000294  00000-0  31450-3 0  9166
2 30054 099.6957 275.2498 0285529 259.6255 165.5867 13.65886785336402
0 FENGYUN 1C DEB
1 30054U 99025PF  13288.53765549  .00000357  00000-0  37237-3 0  9173
2 30054 099.6959 276.8757 0285550 255.4628 227.4196 13.65888630336629
0 FENGYUN 1C DEB
1 30054U 99025PF  13289.78353132  .00000311  00000-0  33044-3 0  9185
2 30054 099.6962 278.1235 0285571 252.2702 233.6499 13.65889559336794
0 FENGYUN 1C DEB
1 30054U 99025PF  13290.94090199  .00000304  00000-0  32404-3 0  9198
2 30054 099.6964 279.2828 0285598 249.3058 164.6840 13.65890341336958
0 FENGYUN 1C DEB
1 30054U 99025PF  13292.49396699  .00000322  00000-0  33968-3 0  9202
2 30054 099.6968 280.8383 0285622 245.3243 241.4394 13.65891410337166
0 FENGYUN 1C DEB
1 30054U 99025PF  13293.51870502  .00000358  00000-0  37327-3 0  9219
2 30054 099.6970 281.8648 0285642 242.6999 240.2988 13.65892038337303
0 FENGYUN 1C DEB
1 30054U 99025PF  13294.54368525  .00000365  00000-0  37933-3 0  9222
2 30054 099.6970 282.8917 0285657 240.0769 240.3484 13.65893059337447
0 FENGYUN 1C DEB
1 30054U 99025PF  13295.79002697  .00000374  00000-0  38734-3 0  9236
2 30054 099.6970 284.1404 0285683 236.8852 248.8882 13.65893799337613
